{
    "links": {
        "self": "http://www.neowsapp.com/rest/v1/neo/3720890?api_key=iIulBulltgU6a56xZRHN4H3l9WmuAYTsLGpBGhQ2"
    },
    "id": "3720890",
    "neo_reference_id": "3720890",
    "name": "(2015 KY157)",
    "designation": "2015 KY157",
    "nasa_jpl_url": "http://ssd.jpl.nasa.gov/sbdb.cgi?sstr=3720890",
    "absolute_magnitude_h": 21.8,
    "estimated_diameter": {
        "kilometers": {
            "estimated_diameter_min": 0.1160259082,
            "estimated_diameter_max": 0.2594418179
        },
        "meters": {
            "estimated_diameter_min": 116.0259082094,
            "estimated_diameter_max": 259.4418179074
        },
        "miles": {
            "estimated_diameter_min": 0.0720951346,
            "estimated_diameter_max": 0.1612096218
        },
        "feet": {
            "estimated_diameter_min": 380.6624406898,
            "estimated_diameter_max": 851.1870938635
        }
    },
    "is_potentially_hazardous_asteroid": false,
    "close_approach_data": [
        {
            "close_approach_date": "2015-03-06",
            "close_approach_date_full": "2015-Mar-06 17:01",
            "epoch_date_close_approach": 1425661260000,
            "relative_velocity": {
                "kilometers_per_second": "14.3566404687",
                "kilometers_per_hour": "51683.9056872052",
                "miles_per_hour": "32114.3690643637"
            },
            "miss_distance": {
                "astronomical": "0.3681208727",
                "lunar": "143.1990194803",
                "kilometers": "55070098.458461149",
                "miles": "34218972.4272518962"
            },
            "orbiting_body": "Earth"
        }
    ],
    "orbital_data": {
        "orbit_id": "3",
        "orbit_determination_date": "2017-04-06 08:33:17",
        "first_observation_date": "2015-05-21",
        "last_observation_date": "2015-05-24",
        "data_arc_in_days": 3,
        "observations_used": 13,
        "orbit_uncertainty": "9",
        "minimum_orbit_intersection": ".0658068",
        "jupiter_tisserand_invariant": "4.302",
        "epoch_osculation": "2457164.5",
        "eccentricity": ".6683421751176452",
        "semi_major_axis": "1.482299359188431",
        "inclination": "4.48755562408255",
        "ascending_node_longitude": "264.5029379244833",
        "orbital_period": "659.1773985871154",
        "perihelion_distance": ".4916161812929435",
        "perihelion_argument": "197.2635550171969",
        "aphelion_distance": "2.472982537083919",
        "perihelion_time": "2457058.086944096509",
        "mean_anomaly": "58.1159187304781",
        "mean_motion": ".5461352297145292",
        "equinox": "J2000",
        "orbit_class": {
            "orbit_class_type": "APO",
            "orbit_class_description": "Near-Earth asteroid orbits which cross the Earth’s orbit similar to that of 1862 Apollo",
            "orbit_class_range": "a (semi-major axis) > 1.0 AU; q (perihelion) < 1.017 AU"
        }
    },
    "is_sentry_object": false
}